STARLINK-36825          
1 68041U 26041B   26071.16668981 -.01604102  00000+0 -80356-2 0  9992
2 68041  53.1589  49.7220 0001054  88.6485 142.1226 15.83952458  2779
STARLINK-36925          
1 68042U 26041C   26071.16668981 -.01600102  00000+0 -80806-2 0  9999
2 68042  53.1589  49.7302 0000778  83.5288 143.4988 15.83780407  2770
STARLINK-36902          
1 68043U 26041D   26071.16668981 -.01589541  00000+0 -78852-2 0  9991
2 68043  53.1592  49.7149 0001028 108.8887 125.5335 15.84127905  2775
STARLINK-36966          
1 68044U 26041E   26071.16668981 -.01583086  00000+0 -77414-2 0  9993
2 68044  53.1589  49.6992 0001087  95.1358 146.8011 15.84411420  2778
STARLINK-36864          
1 68045U 26041F   26071.16668981 -.01592694  00000+0 -78600-2 0  9997
2 68045  53.1589  49.7070 0000919  91.9775 146.3319 15.84242328  2772
STARLINK-36321          
1 68046U 26041G   26071.16668981 -.01584112  00000+0 -76420-2 0  9992
2 68046  53.1590  49.6839 0001180 104.5053 144.8920 15.84692121  2779
STARLINK-36181          
1 68047U 26041H   26071.16668981 -.01597000  00000+0 -77623-2 0  9999
2 68047  53.1590  49.6918 0000902  92.5088 153.1511 15.84564606  2655
STARLINK-36318          
1 68048U 26041J   26071.16668981 -.01582184  00000+0 -75751-2 0  9997
2 68048  53.1589  49.6766 0000751  82.9969 170.0146 15.84849382  2770
STARLINK-36885          
1 68049U 26041K   26071.16668981 -.01589164  00000+0 -75240-2 0  9996
2 68049  53.1588  49.6609 0001039  92.7618 167.7975 15.85088205  2779
STARLINK-36945          
1 68050U 26041L   26071.16668981 -.01595162  00000+0 -76003-2 0  9991
2 68050  53.1587  49.6685 0001025 103.4429 153.3696 15.84969766  2779
STARLINK-35911          
1 68051U 26041M   26071.16668981 -.01601158  00000+0 -75488-2 0  9991
2 68051  53.1587  49.6533 0000787  88.3407 176.0335 15.85200050  2736
STARLINK-35808          
1 68052U 26041N   26071.16668981 -.01592777  00000+0 -74550-2 0  9997
2 68052  53.1584  49.6448 0000819  85.3167 182.6998 15.85332581  2738
